[{"OBJECT_NAME":"STARLINK-2494","OBJECT_ID":"2021-040BM","EPOCH":"2026-03-09T15:52:46.220448","MEAN_MOTION":15.30208187,"ECCENTRICITY":0.00014118,"INCLINATION":53.162,"RA_OF_ASC_NODE":194.1526,"ARG_OF_PERICENTER":74.5162,"MEAN_ANOMALY":285.5994,"EPHEMERIS_TYPE":0,"CLASSIFICATION_TYPE":"U","NORAD_CAT_ID":48487,"ELEMENT_SET_NO":999,"REV_AT_EPOCH":26646,"BSTAR":0.00040475051,"MEAN_MOTION_DOT":0.0001165,"MEAN_MOTION_DDOT":0},{"OBJECT_NAME":"KUIPER-00222","OBJECT_ID":"2026-030U","EPOCH":"2026-03-09T16:13:57.726048","MEAN_MOTION":15.32445377,"ECCENTRICITY":0.00128002,"INCLINATION":51.8817,"RA_OF_ASC_NODE":219.7147,"ARG_OF_PERICENTER":40.1845,"MEAN_ANOMALY":320.0084,"EPHEMERIS_TYPE":0,"CLASSIFICATION_TYPE":"U","NORAD_CAT_ID":67782,"ELEMENT_SET_NO":999,"REV_AT_EPOCH":508,"BSTAR":0.0017317201,"MEAN_MOTION_DOT":0.00055223,"MEAN_MOTION_DDOT":0}]
